NORAD_CAT_ID,OBJECT_NAME,OBJECT_TYPE,EPOCH,MEAN_MOTION,ECCENTRICITY,INCLINATION,RA_OF_ASC_NODE,ARG_OF_PERICENTER,MEAN_ANOMALY,BSTAR,MEAN_MOTION_DOT,MEAN_MOTION_DDOT,TLE_LINE0,TLE_LINE1,TLE_LINE2,SEMIMAJOR_AXIS,PERIOD,APOGEE,PERIGEE,DECAYED
52846.0,STARLINK-4212,PAYLOAD,2023-06-10 10:52:34,15.08833413,0.0001108,53.2147,217.8313,78.4813,281.6303,2.9283e-05,1.78e-06,0.0,0 STARLINK-4212,1 52846U 22062S   23161.45317977  .00000178  00000-0  29283-4 0  9997,2 52846  53.2147 217.8313 0001108  78.4813 281.6303 15.08833413 54339,6917.901,95.438,540.532,538.999,0.0
52846.0,STARLINK-4212,PAYLOAD,2023-06-10 20:24:53,15.0883541,9.25e-05,53.2152,216.0476,75.2898,284.8196,-1.0989e-06,-3.05e-06,0.0,0 STARLINK-4212,1 52846U 22062S   23161.85062051 -.00000305  00000-0 -10989-5 0  9999,2 52846  53.2152 216.0476 0000925  75.2898 284.8196 15.08835410 54390,6917.894,95.438,540.399,539.12,0.0
52846.0,STARLINK-4212,PAYLOAD,2023-06-11 13:54:08,15.08835654,0.0001052,53.2148,212.776,75.9224,284.1885,5.4852e-05,5.85e-06,0.0,0 STARLINK-4212,1 52846U 22062S   23162.57926058  .00000585  00000-0  54852-4 0  9999,2 52846  53.2148 212.7760 0001052  75.9224 284.1885 15.08835654 54507,6917.894,95.438,540.486,539.031,0.0
52846.0,STARLINK-4212,PAYLOAD,2023-06-11 20:15:40,15.08839967,9.11e-05,53.2152,211.5872,77.2872,282.8222,1.2216e-05,-9.3e-07,0.0,0 STARLINK-4212,1 52846U 22062S   23162.84421851 -.00000093  00000-0  12216-4 0  9993,2 52846  53.2152 211.5872 0000911  77.2872 282.8222 15.08839967 54545,6917.88,95.438,540.376,539.115,0.0
52846.0,STARLINK-4212,PAYLOAD,2023-06-12 20:06:28,15.08834738,9.68e-05,53.2156,207.1272,86.5722,273.5381,4.4845e-05,4.26e-06,0.0,0 STARLINK-4212,1 52846U 22062S   23163.83782437  .00000426  00000-0  44845-4 0  9995,2 52846  53.2156 207.1272 0000968  86.5722 273.5381 15.08834738 55188,6917.896,95.438,540.431,539.092,0.0
52846.0,STARLINK-4212,PAYLOAD,2023-06-13 02:28:00,15.08837609,9.47e-05,53.2156,205.9373,86.6946,273.4154,5.3908e-05,5.7e-06,0.0,0 STARLINK-4212,1 52846U 22062S   23164.10278276  .00000570  00000-0  53908-4 0  9997,2 52846  53.2156 205.9373 0000947  86.6946 273.4154 15.08837609 54739,6917.888,95.438,540.408,539.098,0.0
52846.0,STARLINK-4212,PAYLOAD,2023-06-13 19:57:14,15.08841877,9.49e-05,53.2157,202.6662,85.1448,274.9653,4.0899e-05,3.63e-06,0.0,0 STARLINK-4212,1 52846U 22062S   23164.83142030  .00000363  00000-0  40899-4 0  9990,2 52846  53.2157 202.6662 0000949  85.1448 274.9653 15.08841877 54842,6917.875,95.437,540.396,539.083,0.0
52846.0,STARLINK-4212,PAYLOAD,2023-06-13 23:08:01,15.08839522,9.56e-05,53.2155,202.0717,84.9433,275.1669,4.852e-05,4.85e-06,0.0,0 STARLINK-4212,1 52846U 22062S   23164.96390152  .00000485  00000-0  48520-4 0  9998,2 52846  53.2155 202.0717 0000956  84.9433 275.1669 15.08839522 55355,6917.882,95.438,540.408,539.086,0.0
52846.0,STARLINK-4212,PAYLOAD,2023-06-14 11:51:06,15.08840048,9.64e-05,53.2154,199.6924,85.2027,274.9075,6.7665e-05,7.89e-06,0.0,0 STARLINK-4212,1 52846U 22062S   23165.49382055  .00000789  00000-0  67665-4 0  9998,2 52846  53.2154 199.6924 0000964  85.2027 274.9075 15.08840048 54944,6917.88,95.438,540.412,539.078,0.0
52846.0,STARLINK-4212,PAYLOAD,2023-06-14 19:48:01,15.08838592,9.68e-05,53.2153,198.2055,84.5021,275.6081,4.7432e-05,4.67e-06,0.0,0 STARLINK-4212,1 52846U 22062S   23165.82502202  .00000467  00000-0  47432-4 0  9996,2 52846  53.2153 198.2055 0000968  84.5021 275.6081 15.08838592 54994,6917.885,95.438,540.419,539.08,0.0
52846.0,STARLINK-4212,PAYLOAD,2023-06-15 02:09:34,15.08839045,0.0001004,53.2152,197.016,84.1778,275.9328,1.7567e-05,-8e-08,0.0,0 STARLINK-4212,1 52846U 22062S   23166.08998284 -.00000008  00000-0  17567-4 0  9992,2 52846  53.2152 197.0160 0001004  84.1778 275.9328 15.08839045 55525,6917.883,95.438,540.443,539.054,0.0
52846.0,STARLINK-4212,PAYLOAD,2023-06-15 11:41:53,15.08840862,9.73e-05,53.2153,195.2312,87.5776,272.5328,1.7571e-05,-8e-08,0.0,0 STARLINK-4212,1 52846U 22062S   23166.48742137 -.00000008  00000-0  17571-4 0  9995,2 52846  53.2153 195.2312 0000973  87.5776 272.5328 15.08840862 55098,6917.878,95.438,540.416,539.07,0.0
52846.0,STARLINK-4212,PAYLOAD,2023-06-16 08:21:53,15.08840868,9.89e-05,53.215,191.3652,87.1745,272.936,2.3518e-05,8.7e-07,0.0,0 STARLINK-4212,1 52846U 22062S   23167.34854113  .00000087  00000-0  23518-4 0  9993,2 52846  53.2150 191.3652 0000989  87.1745 272.9360 15.08840868 55713,6917.878,95.437,540.427,539.059,0.0
52846.0,STARLINK-4212,PAYLOAD,2023-06-17 08:12:41,15.08839218,9.82e-05,53.2152,186.9048,86.7001,273.4103,3.5221e-05,2.73e-06,0.0,0 STARLINK-4212,1 52846U 22062S   23168.34214183  .00000273  00000-0  35221-4 0  9992,2 52846  53.2152 186.9048 0000982  86.7001 273.4103 15.08839218 55377,6917.883,95.438,540.427,539.068,0.0
52846.0,STARLINK-4212,PAYLOAD,2023-06-17 17:45:00,15.08835373,9.42e-05,53.2149,185.1206,83.3453,276.7646,-2.4815e-07,-2.92e-06,0.0,0 STARLINK-4212,1 52846U 22062S   23168.73958583 -.00000292  00000-0 -24815-6 0  9996,2 52846  53.2149 185.1206 0000942  83.3453 276.7646 15.08835373 55927,6917.895,95.438,540.411,539.108,0.0
52846.0,STARLINK-4212,PAYLOAD,2023-06-18 08:03:28,15.0883214,9.62e-05,53.2151,182.4444,83.3303,276.7799,-2.506e-05,-6.86e-06,0.0,0 STARLINK-4212,1 52846U 22062S   23169.33575116 -.00000686  00000-0 -25060-4 0  9998,2 52846  53.2151 182.4444 0000962  83.3303 276.7799 15.08832140 55524,6917.904,95.438,540.435,539.104,0.0
52846.0,STARLINK-4212,PAYLOAD,2023-06-18 17:35:47,15.0883525,9.93e-05,53.2154,180.6607,83.7921,276.3184,-1.8806e-06,-3.18e-06,0.0,0 STARLINK-4212,1 52846U 22062S   23169.73318989 -.00000318  00000-0 -18806-5 0  9998,2 52846  53.2154 180.6607 0000993  83.7921 276.3184 15.08835250 55587,6917.895,95.438,540.447,539.073,0.0
52846.0,STARLINK-4212,PAYLOAD,2023-06-19 01:32:43,15.08835179,9.79e-05,53.2153,179.1735,84.1306,275.9798,1.2423e-05,-9e-07,0.0,0 STARLINK-4212,1 52846U 22062S   23170.06439030 -.00000090  00000-0  12423-4 0  9991,2 52846  53.2153 179.1735 0000979  84.1306 275.9798 15.08835179 56124,6917.895,95.438,540.437,539.083,0.0
52846.0,STARLINK-4212,PAYLOAD,2023-06-19 09:29:38,15.08837497,9.94e-05,53.2154,177.6869,84.2963,275.8142,3.1928e-05,2.2e-06,0.0,0 STARLINK-4212,1 52846U 22062S   23170.39558905  .00000220  00000-0  31928-4 0  9995,2 52846  53.2154 177.6869 0000994  84.2963 275.8142 15.08837497 55680,6917.888,95.438,540.441,539.065,0.0
52846.0,STARLINK-4212,PAYLOAD,2023-06-19 17:26:34,15.08836517,0.0001008,53.2156,176.2003,84.802,275.3087,4.0521e-05,3.57e-06,0.0,0 STARLINK-4212,1 52846U 22062S   23170.72679008  .00000357  00000-0  40521-4 0  9990,2 52846  53.2156 176.2003 0001008  84.8020 275.3087 15.08836517 55735,6917.891,95.438,540.453,539.059,0.0
52846.0,STARLINK-4212,PAYLOAD,2023-06-20 01:23:30,15.08835086,9.86e-05,53.2153,174.7129,86.2237,273.8868,7.0359e-05,8.32e-06,0.0,0 STARLINK-4212,1 52846U 22062S   23171.05799062  .00000832  00000-0  70359-4 0  9990,2 52846  53.2153 174.7129 0000986  86.2237 273.8868 15.08835086 55789,6917.895,95.438,540.443,539.078,0.0
52846.0,STARLINK-4212,PAYLOAD,2023-06-21 09:11:12,15.08841361,0.0001067,53.2158,168.7655,84.5542,275.5571,4.85e-05,4.84e-06,0.0,0 STARLINK-4212,1 52846U 22062S   23172.38278897  .00000484  00000-0  48500-4 0  9991,2 52846  53.2158 168.7655 0001067  84.5542 275.5571 15.08841361 56472,6917.876,95.437,540.479,539.003,0.0
52846.0,STARLINK-4212,PAYLOAD,2023-06-21 17:08:08,15.08840018,0.0001071,53.2158,167.2794,85.1162,274.9953,3.6516e-05,2.93e-06,0.0,0 STARLINK-4212,1 52846U 22062S   23172.71398994  .00000293  00000-0  36516-4 0  9991,2 52846  53.2158 167.2794 0001071  85.1162 274.9953 15.08840018 56037,6917.88,95.438,540.486,539.004,0.0
52846.0,STARLINK-4212,PAYLOAD,2023-06-22 16:58:55,15.08841689,0.0001075,53.2159,162.8183,89.5882,270.5233,2.9055e-05,1.75e-06,0.0,0 STARLINK-4212,1 52846U 22062S   23173.70758821  .00000175  00000-0  29055-4 0  9999,2 52846  53.2159 162.8183 0001075  89.5882 270.5233 15.08841689 56670,6917.875,95.437,540.484,538.997,0.0
52846.0,STARLINK-4212,PAYLOAD,2023-06-24 02:22:01,15.08837696,0.0001121,53.216,156.5728,93.6309,266.4811,-1.6748e-06,-3.14e-06,0.0,0 STARLINK-4212,1 52846U 22062S   23175.09863110 -.00000314  00000-0 -16748-5 0  9994,2 52846  53.2160 156.5728 0001121  93.6309 266.4811 15.08837696 56881,6917.887,95.438,540.528,538.977,0.0
52846.0,STARLINK-4212,PAYLOAD,2023-06-25 08:34:21,15.08842121,0.0001159,53.2163,150.9242,89.8403,270.2722,3.7011e-05,3.01e-06,0.0,0 STARLINK-4212,1 52846U 22062S   23176.35718860  .00000301  00000-0  37011-4 0  9994,2 52846  53.2163 150.9242 0001159  89.8403 270.2722 15.08842121 57071,6917.874,95.437,540.541,538.937,0.0
52846.0,STARLINK-4212,PAYLOAD,2023-06-26 02:03:36,15.08833217,0.0001227,53.2163,147.6537,92.0433,268.07,-1.8626e-05,-5.84e-06,0.0,0 STARLINK-4212,1 52846U 22062S   23177.08583832 -.00000584  00000-0 -18626-4 0  9990,2 52846  53.2163 147.6537 0001227  92.0433 268.0700 15.08833217 57185,6917.901,95.438,540.615,538.917,0.0
52846.0,STARLINK-4212,PAYLOAD,2023-06-27 08:15:55,15.08837847,0.0001235,53.2162,142.0038,92.1148,267.9985,3.5643e-05,2.79e-06,0.0,0 STARLINK-4212,1 52846U 22062S   23178.34439798  .00000279  00000-0  35643-4 0  9998,2 52846  53.2162 142.0038 0001235  92.1148 267.9985 15.08837847 57379,6917.887,95.438,540.606,538.898,0.0
52846.0,STARLINK-4212,PAYLOAD,2023-06-29 03:11:21,15.08834982,0.0001358,53.217,133.9745,87.9875,272.1272,4.8126e-06,-2.11e-06,0.0,0 STARLINK-4212,1 52846U 22062S   23180.13288580 -.00000211  00000-0  48126-5 0  9997,2 52846  53.2170 133.9745 0001358  87.9875 272.1272 15.08834982 57641,6917.896,95.438,540.7,538.821,0.0
52846.0,STARLINK-4212,PAYLOAD,2023-06-30 14:09:50,15.08835377,0.0001593,53.2171,127.4308,92.8565,267.2609,-2.3763e-05,-6.66e-06,0.0,0 STARLINK-4212,1 52846U 22062S   23181.59016412 -.00000666  00000-0 -23763-4 0  9995,2 52846  53.2171 127.4308 0001593  92.8565 267.2609 15.08835377 57869,6917.895,95.438,540.862,538.657,0.0
